[{"OBJECT_NAME":"STARLINK-5973","OBJECT_ID":"2023-083AS","EPOCH":"2026-03-09T22:00:01.999584","MEAN_MOTION":15.06658129,"ECCENTRICITY":0.00010999,"INCLINATION":43.0007,"RA_OF_ASC_NODE":67.3137,"ARG_OF_PERICENTER":323.5297,"MEAN_ANOMALY":164.4858,"EPHEMERIS_TYPE":0,"CLASSIFICATION_TYPE":"U","NORAD_CAT_ID":56916,"ELEMENT_SET_NO":999,"REV_AT_EPOCH":557,"BSTAR":0.0043231422,"MEAN_MOTION_DOT":0.00065619,"MEAN_MOTION_DDOT":0},{"OBJECT_NAME":"STARLING 4","OBJECT_ID":"2023-100A","EPOCH":"2026-03-07T00:40:50.723040","MEAN_MOTION":15.06148396,"ECCENTRICITY":0.00078037,"INCLINATION":99.5115,"RA_OF_ASC_NODE":59.9711,"ARG_OF_PERICENTER":83.0949,"MEAN_ANOMALY":277.1159,"EPHEMERIS_TYPE":0,"CLASSIFICATION_TYPE":"U","NORAD_CAT_ID":57386,"ELEMENT_SET_NO":999,"REV_AT_EPOCH":14452,"BSTAR":5.567556e-6,"MEAN_MOTION_DOT":-9.0e-8,"MEAN_MOTION_DDOT":0}]
